BEIDOU 3 (C01)          
1 36287U 10001A   21150.64518450 -.00000291  00000-0  00000-0 0  9993
2 36287   1.8486  45.8736 0005363  72.3873 142.8003  1.00273444 41676
BEIDOU 5 (C06)          
1 36828U 10036A   21150.75912944 -.00000076  00000-0  00000-0 0  9991
2 36828  54.1742 179.7566 0113318 235.3538 225.6009  1.00266416 39731
BEIDOU 6 (C04)          
1 37210U 10057A   21150.86210237 -.00000123  00000-0  00000-0 0  9991
2 37210   0.8187  45.5522 0002811 121.9036 191.4533  1.00271086 38794
BEIDOU 7 (C07)          
1 37256U 10068A   21150.78729999 -.00000231  00000-0  00000-0 0  9994
2 37256  50.8931 294.2088 0084459 215.2181 141.0754  1.00259949 38309
BEIDOU 8 (C08)          
1 37384U 11013A   21150.93328146 -.00000222  00000-0  00000-0 0  9993
2 37384  59.7547  58.0823 0052181 206.3308  78.0555  1.00258662 37188
BEIDOU 9 (C09)          
1 37763U 11038A   21150.92725228 -.00000043  00000-0  00000-0 0  9993
2 37763  54.4610 182.1981 0083279 226.4846 269.4517  1.00268765 36164
BEIDOU 10 (C10)         
1 37948U 11073A   21150.81586308 -.00000160  00000-0  00000-0 0  9999
2 37948  50.9968 293.8222 0071655 213.6477 128.3445  1.00257702 34910
BEIDOU 11 (C05)         
1 38091U 12008A   21149.82757705  .00000046  00000-0  00000-0 0  9990
2 38091   1.5131  67.2801 0008574 325.2216 211.8647  1.00277316 33982
BEIDOU 12 (C11)         
1 38250U 12018A   21150.86775697 -.00000106  00000-0  00000-0 0  9992
2 38250  56.7546   6.1916 0020284 249.7804 133.8772  1.86234447 61968
BEIDOU 13 (C12)         
1 38251U 12018B   21150.78724509 -.00000106  00000-0  00000-0 0  9990
2 38251  56.6757   5.5439 0011247 254.9909 119.0971  1.86234305 61968
BEIDOU 15 (C14)         
1 38775U 12050B   21150.87680534  .00000034  00000-0  00000-0 0  9995
2 38775  55.2014 124.5747 0016232 317.3798 314.1540  1.86232401 59336
BEIDOU 16 (C02)         
1 38953U 12059A   21150.97046338 -.00000185  00000-0  00000-0 0  9999
2 38953   1.9287  84.7483 0008597 292.9900 304.3325  1.00269443 31565
BEIDOU 17 (C31)         
1 40549U 15019A   21150.92123516 -.00000189  00000-0  00000-0 0  9995
2 40549  52.5249 317.1887 0037842 186.4952 173.0490  1.00269776 22595
BEIDOU 18 (C57)         
1 40748U 15037A   21150.63661530 -.00000106  00000-0  00000+0 0  9995
2 40748  55.9372   4.6470 0005283  25.9425 157.0497  1.86233431 39783
BEIDOU 19 (C58)         
1 40749U 15037B   21150.67046310 -.00000106  00000-0  00000-0 0  9994
2 40749  55.9429   4.6338 0004868 346.1297 355.7487  1.86232320 39774
BEIDOU 20 (C18)         
1 40938U 15053A   21150.08403164 -.00000154  00000-0  00000-0 0  9994
2 40938  52.0925 280.2690 0046335 191.1830 261.9048  1.00287061 20861
BEIDOU IGSO-6 (C13)     
1 41434U 16021A   21150.72017492 -.00000188  00000-0  00000-0 0  9995
2 41434  57.5382  56.8291 0038336 215.3316 332.3943  1.00273057 18992
BEIDOU-2 G7 (C03)       
1 41586U 16037A   21150.88860097 -.00000364  00000-0  00000-0 0  9990
2 41586   1.6652  66.6748 0010133  19.1271 233.1656  1.00266520 18302
BEIDOU-3 M1 (C19)       
1 43001U 17069A   21150.50436693  .00000032  00000-0  00000-0 0  9991
2 43001  55.3544 124.5375 0012431 290.8546 247.0638  1.86231822 24265
BEIDOU-3 M2 (C20)       
1 43002U 17069B   21150.43777795  .00000031  00000-0  00000-0 0  9994
2 43002  55.3545 124.5738 0010930 307.7656 229.0164  1.86231440 24251
BEIDOU-3 M3 (C27)       
1 43107U 18003A   21150.46243045 -.00000108  00000-0  00000-0 0  9994
2 43107  55.3812   5.7428 0005778  47.4475 311.7329  1.86232594 23017
BEIDOU-3 M4 (C28)       
1 43108U 18003B   21150.91836919 -.00000109  00000-0  00000-0 0  9994
2 43108  55.3738   5.7165 0001910 253.3439  96.6973  1.86232543 23024
BEIDOU-3 M5 (C21)       
1 43207U 18018A   21150.30646798  .00000030  00000-0  00000-0 0  9999
2 43207  55.3146 124.6709 0008180 323.4973  36.4091  1.86231714 22403
BEIDOU-3 M6 (C22)       
1 43208U 18018B   21150.37313558  .00000031  00000-0  00000-0 0  9993
2 43208  55.3155 124.6730 0010525 300.0651  59.7932  1.86231740 22409
BEIDOU-3 M7 (C29)       
1 43245U 18029A   21150.59587017 -.00000107  00000-0  00000-0 0  9998
2 43245  55.3139   3.5296 0001448  39.4884 319.3398  1.86232676 21554
BEIDOU-3 M8 (C30)       
1 43246U 18029B   21150.52907872 -.00000107  00000-0  10000-3 0  9991
2 43246  55.3107   3.5628 0004729   4.0699 356.1331  1.86232573 21558
BEIDOU IGSO-7 (C16)     
1 43539U 18057A   21150.75943038 -.00000090  00000-0  00000-0 0  9993
2 43539  55.0549 179.1131 0038643 222.7497 233.7288  1.00274547 10671
BEIDOU-3 M9 (C23)       
1 43581U 18062A   21150.83522537 -.00000024  00000-0  00000-0 0  9999
2 43581  54.4091 245.2015 0003998 264.0302 151.4801  1.86231668 19305
BEIDOU-3 M10 (C24)      
1 43582U 18062B   21150.69259669 -.00000022  00000-0  00000-0 0  9995
2 43582  54.4083 245.1958 0004173 358.6978  52.5229  1.86232098 19300
BEIDOU-3 M11 (C25)      
1 43602U 18067A   21150.93418547 -.00000024  00000-0  00000-0 0  9994
2 43602  54.4834 243.7719 0006504 359.6447 255.7979  1.86231775 18790
BEIDOU-3 M12 (C26)      
1 43603U 18067B   21150.52770196 -.00000018  00000-0  00000-0 0  9994
2 43603  54.4800 243.7503 0003773 346.7686 266.6114  1.86231688 18809
BEIDOU-3 M13 (C32)      
1 43622U 18072A   21150.35856112  .00000030  00000-0  00000-0 0  9998
2 43622  55.2792 124.2375 0008891 288.4790 241.6264  1.86231803 18317
BEIDOU-3 M14 (C33)      
1 43623U 18072B   21150.86573922  .00000034  00000-0  00000-0 0  9994
2 43623  55.2785 124.2123 0007076 306.8319 293.5499  1.86231840 18325
BEIDOU-3 M15 (C34)      
1 43647U 18078A   21150.66294269 -.00000107  00000-0  10000-3 0  9994
2 43647  55.2081   3.7180 0007078   5.3252 354.3155  1.86232552 17823
BEIDOU-3 M16 (C35)      
1 43648U 18078B   21150.74553564 -.00000107  00000-0  10000-3 0  9990
2 43648  55.2038   3.7218 0005387  17.2373 306.2798  1.86232386 17841
BEIDOU-3 G1 (C59)       
1 43683U 18085A   21150.88313802 -.00000288  00000-0  00000-0 0  9997
2 43683   1.0806 229.3146 0002654 352.0062 125.2211  1.00268629  9572
BEIDOU-3 M17 (C36)      
1 43706U 18093A   21150.41683393 -.00000018  00000-0  00000-0 0  9997
2 43706  54.4882 245.0735 0009881 266.6259  93.3060  1.86231780 17208
BEIDOU-3 M18 (C37)      
1 43707U 18093B   21150.66384064 -.00000021  00000-0  00000-0 0  9992
2 43707  54.4893 245.0547 0007702 292.6734 323.7101  1.86232154 17199
BEIDOU-3 IGSO-1 (C38)   
1 44204U 19023A   21150.66901826 -.00000236  00000-0  00000-0 0  9998
2 44204  55.9966  57.1104 0018508 193.3935 349.1079  1.00300370  7878
BEIDOU-2 G8             
1 44231U 19027A   21150.82618523 -.00000257  00000-0  00000+0 0  9991
2 44231   0.2867 340.0241 0005834 205.6481 144.8084  1.00271128  7580
BEIDOU-3 IGSO-2 (C39)   
1 44337U 19035A   21150.83895453 -.00000077  00000-0  00000-0 0  9998
2 44337  55.0890 175.1534 0020241 192.5918 289.5296  1.00286644  7212
BEIDOU-3 M23 (C45)      
1 44542U 19061A   21150.72810941 -.00000022  00000-0  10000-3 0  9996
2 44542  54.7123 245.1286 0007425 328.0264 284.5422  1.86231280 11453
BEIDOU-3 M24 (C46)      
1 44543U 19061B   21150.86658418 -.00000024  00000-0  10000-3 0  9993
2 44543  54.7137 245.0960 0004720 315.6012 300.6382  1.86231686 11461
BEIDOU-3 IGSO-3         
1 44709U 19073A   21150.85137235 -.00000185  00000-0  00000-0 0  9992
2 44709  57.8689 300.3352 0019077 197.5346 164.0407  1.00281064  5979
BEIDOU-3 M21            
1 44793U 19078A   21150.72985266 -.00000108  00000-0  10000-3 0  9990
2 44793  55.0574   3.7832 0006942  12.2651 346.6979  1.86232024 10313
BEIDOU-3 M22            
1 44794U 19078B   21150.59107382 -.00000107  00000-0  00000-0 0  9996
2 44794  55.0249   3.7877 0004945  10.7472 166.1316  1.86232888 10315
BEIDOU-3 M19            
1 44864U 19090A   21150.83351819  .00000034  00000-0  00000-0 0  9999
2 44864  55.2143 124.4538 0018116 269.7817 264.2446  1.86231930  9901
BEIDOU-3 M20            
1 44865U 19090B   21150.62918178  .00000032  00000-0  00000-0 0  9992
2 44865  55.2167 124.4912 0016952 282.9872 203.9623  1.86231926  9887
BEIDOU-3 G2             
1 45344U 20017A   21150.85396535 -.00000152  00000-0  00000-0 0  9992
2 45344   2.4564 336.1456 0003867 110.0145 189.9014  1.00270367  4784
BEIDOU-3 G3             
1 45807U 20040A   21150.92402671 -.00000364  00000-0  00000-0 0  9994
2 45807   2.3235 298.5739 0004798   9.7691  23.4521  1.00267405  3605
